{"fetched_at":"2026-07-20T18:28:56.744Z","source":"https://celestrak.org/NORAD/elements/gp.php?GROUP=planet&FORMAT=JSON","constellation":"superdove","records":[{"OBJECT_NAME":"FLOCK 4BE-17","OBJECT_ID":"2024-149AA","EPOCH":"2026-07-20T03:48:45.869472","CLASSIFICATION_TYPE":"U","MEAN_MOTION":15.40664875,"ECCENTRICITY":0.00045982,"INCLINATION":97.3759,"RA_OF_ASC_NODE":284.808,"ARG_OF_PERICENTER":134.2497,"MEAN_ANOMALY":225.9128,"EPHEMERIS_TYPE":0,"NORAD_CAT_ID":60492,"ELEMENT_SET_NO":999,"REV_AT_EPOCH":10733,"BSTAR":0.00024272088,"MEAN_MOTION_DOT":0.00009817,"MEAN_MOTION_DDOT":0},{"OBJECT_NAME":"FLOCK 4BE-22","OBJECT_ID":"2024-149AC","EPOCH":"2026-07-19T18:51:50.189184","CLASSIFICATION_TYPE":"U","MEAN_MOTION":15.42128028,"ECCENTRICITY":0.00050275,"INCLINATION":97.3722,"RA_OF_ASC_NODE":284.6756,"ARG_OF_PERICENTER":143.6358,"MEAN_ANOMALY":216.5231,"EPHEMERIS_TYPE":0,"NORAD_CAT_ID":60494,"ELEMENT_SET_NO":999,"REV_AT_EPOCH":10732,"BSTAR":0.00072931241,"MEAN_MOTION_DOT":0.0003123,"MEAN_MOTION_DDOT":0},{"OBJECT_NAME":"FLOCK 4BE-34","OBJECT_ID":"2024-149AD","EPOCH":"2026-07-20T04:37:58.814112","CLASSIFICATION_TYPE":"U","MEAN_MOTION":15.42043469,"ECCENTRICITY":0.00051929,"INCLINATION":97.3771,"RA_OF_ASC_NODE":285.9304,"ARG_OF_PERICENTER":147.4692,"MEAN_ANOMALY":212.6876,"EPHEMERIS_TYPE":0,"NORAD_CAT_ID":60495,"ELEMENT_SET_NO":999,"REV_AT_EPOCH":10741,"BSTAR":0.00022649486,"MEAN_MOTION_DOT":0.00009586,"MEAN_MOTION_DDOT":0},{"OBJECT_NAME":"FLOCK 4BE-32","OBJECT_ID":"2024-149AF","EPOCH":"2026-07-20T03:19:31.633248","CLASSIFICATION_TYPE":"U","MEAN_MOTION":15.43194801,"ECCENTRICITY":0.00052853,"INCLINATION":97.3707,"RA_OF_ASC_NODE":285.4458,"ARG_OF_PERICENTER":145.5792,"MEAN_ANOMALY":214.5799,"EPHEMERIS_TYPE":0,"NORAD_CAT_ID":60497,"ELEMENT_SET_NO":999,"REV_AT_EPOCH":10741,"BSTAR":0.00025177418,"MEAN_MOTION_DOT":0.00011088,"MEAN_MOTION_DDOT":0},{"OBJECT_NAME":"FLOCK 4BE-11","OBJECT_ID":"2024-149AK","EPOCH":"2026-07-19T17:27:09.434592","CLASSIFICATION_TYPE":"U","MEAN_MOTION":15.43976188,"ECCENTRICITY":0.00053121,"INCLINATION":97.3686,"RA_OF_ASC_NODE":285.29,"ARG_OF_PERICENTER":145.9744,"MEAN_ANOMALY":214.1846,"EPHEMERIS_TYPE":0,"NORAD_CAT_ID":60501,"ELEMENT_SET_NO":999,"REV_AT_EPOCH":10737,"BSTAR":0.00024613177,"MEAN_MOTION_DOT":0.00011128,"MEAN_MOTION_DDOT":0},{"OBJECT_NAME":"FLOCK 4BE-24","OBJECT_ID":"2024-149AP","EPOCH":"2026-07-19T23:15:57.047328","CLASSIFICATION_TYPE":"U","MEAN_MOTION":15.44216682,"ECCENTRICITY":0.0005422,"INCLINATION":97.3697,"RA_OF_ASC_NODE":285.8069,"ARG_OF_PERICENTER":156.1445,"MEAN_ANOMALY":204.0056,"EPHEMERIS_TYPE":0,"NORAD_CAT_ID":60505,"ELEMENT_SET_NO":999,"REV_AT_EPOCH":10742,"BSTAR":0.00027422451,"MEAN_MOTION_DOT":0.00012512,"MEAN_MOTION_DDOT":0},{"OBJECT_NAME":"FLOCK 4BE-29","OBJECT_ID":"2024-149AT","EPOCH":"2026-07-20T03:36:09.488448","CLASSIFICATION_TYPE":"U","MEAN_MOTION":15.45737768,"ECCENTRICITY":0.00038423,"INCLINATION":97.3798,"RA_OF_ASC_NODE":287.5511,"ARG_OF_PERICENTER":164.3167,"MEAN_ANOMALY":195.8202,"EPHEMERIS_TYPE":0,"NORAD_CAT_ID":60509,"ELEMENT_SET_NO":999,"REV_AT_EPOCH":10750,"BSTAR":0.00056680246,"MEAN_MOTION_DOT":0.00027377,"MEAN_MOTION_DDOT":0},{"OBJECT_NAME":"FLOCK 4BE-2","OBJECT_ID":"2024-149AV","EPOCH":"2026-07-19T18:12:47.440224","CLASSIFICATION_TYPE":"U","MEAN_MOTION":15.56281614,"ECCENTRICITY":0.00055044,"INCLINATION":97.3816,"RA_OF_ASC_NODE":289.0717,"ARG_OF_PERICENTER":160.7026,"MEAN_ANOMALY":199.4439,"EPHEMERIS_TYPE":0,"NORAD_CAT_ID":60511,"ELEMENT_SET_NO":999,"REV_AT_EPOCH":10756,"BSTAR":0.00055771459,"MEAN_MOTION_DOT":0.00039242,"MEAN_MOTION_DDOT":0},{"OBJECT_NAME":"FLOCK 4BE-13","OBJECT_ID":"2024-149AW","EPOCH":"2026-07-19T18:58:17.128128","CLASSIFICATION_TYPE":"U","MEAN_MOTION":15.42692837,"ECCENTRICITY":0.00054006,"INCLINATION":97.3709,"RA_OF_ASC_NODE":285.5587,"ARG_OF_PERICENTER":142.5347,"MEAN_ANOMALY":217.6278,"EPHEMERIS_TYPE":0,"NORAD_CAT_ID":60512,"ELEMENT_SET_NO":999,"REV_AT_EPOCH":10739,"BSTAR":0.00018727448,"MEAN_MOTION_DOT":0.00008084,"MEAN_MOTION_DDOT":0},{"OBJECT_NAME":"FLOCK 4BE-27","OBJECT_ID":"2024-149AX","EPOCH":"2026-07-19T19:04:22.080864","CLASSIFICATION_TYPE":"U","MEAN_MOTION":15.34964589,"ECCENTRICITY":0.00043694,"INCLINATION":97.3816,"RA_OF_ASC_NODE":282.6724,"ARG_OF_PERICENTER":167.5302,"MEAN_ANOMALY":192.605,"EPHEMERIS_TYPE":0,"NORAD_CAT_ID":60513,"ELEMENT_SET_NO":999,"REV_AT_EPOCH":10714,"BSTAR":0.0001496205,"MEAN_MOTION_DOT":0.00004994,"MEAN_MOTION_DDOT":0},{"OBJECT_NAME":"FLOCK 4BE-9","OBJECT_ID":"2024-149AY","EPOCH":"2026-07-19T19:28:49.203840","CLASSIFICATION_TYPE":"U","MEAN_MOTION":15.41712161,"ECCENTRICITY":0.00039377,"INCLINATION":97.3785,"RA_OF_ASC_NODE":285.42,"ARG_OF_PERICENTER":159.1744,"MEAN_ANOMALY":200.9664,"EPHEMERIS_TYPE":0,"NORAD_CAT_ID":60514,"ELEMENT_SET_NO":999,"REV_AT_EPOCH":10734,"BSTAR":0.00026366012,"MEAN_MOTION_DOT":0.0001105,"MEAN_MOTION_DDOT":0},{"OBJECT_NAME":"FLOCK 4BE-6","OBJECT_ID":"2024-149BA","EPOCH":"2026-07-19T16:07:57.242784","CLASSIFICATION_TYPE":"U","MEAN_MOTION":15.40391844,"ECCENTRICITY":0.00047961,"INCLINATION":97.3778,"RA_OF_ASC_NODE":284.5741,"ARG_OF_PERICENTER":160.3202,"MEAN_ANOMALY":199.8231,"EPHEMERIS_TYPE":0,"NORAD_CAT_ID":60516,"ELEMENT_SET_NO":999,"REV_AT_EPOCH":10727,"BSTAR":0.0002034394,"MEAN_MOTION_DOT":0.00008139,"MEAN_MOTION_DDOT":0},{"OBJECT_NAME":"FLOCK 4BE-14","OBJECT_ID":"2024-149BB","EPOCH":"2026-07-20T03:27:04.033152","CLASSIFICATION_TYPE":"U","MEAN_MOTION":15.41955297,"ECCENTRICITY":0.00057678,"INCLINATION":97.3684,"RA_OF_ASC_NODE":285.2187,"ARG_OF_PERICENTER":161.7338,"MEAN_ANOMALY":198.4117,"EPHEMERIS_TYPE":0,"NORAD_CAT_ID":60517,"ELEMENT_SET_NO":999,"REV_AT_EPOCH":10740,"BSTAR":0.00024259245,"MEAN_MOTION_DOT":0.00010245,"MEAN_MOTION_DDOT":0},{"OBJECT_NAME":"FLOCK 4BE-1","OBJECT_ID":"2024-149BC","EPOCH":"2026-07-20T04:33:07.544160","CLASSIFICATION_TYPE":"U","MEAN_MOTION":15.43617485,"ECCENTRICITY":0.00053995,"INCLINATION":97.3768,"RA_OF_ASC_NODE":286.6623,"ARG_OF_PERICENTER":161.0158,"MEAN_ANOMALY":199.1292,"EPHEMERIS_TYPE":0,"NORAD_CAT_ID":60518,"ELEMENT_SET_NO":999,"REV_AT_EPOCH":10746,"BSTAR":0.00024277428,"MEAN_MOTION_DOT":0.00010842,"MEAN_MOTION_DDOT":0},{"OBJECT_NAME":"FLOCK 4BE-28","OBJECT_ID":"2024-149BD","EPOCH":"2026-07-20T03:37:11.871840","CLASSIFICATION_TYPE":"U","MEAN_MOTION":15.46555122,"ECCENTRICITY":0.00054417,"INCLINATION":97.3737,"RA_OF_ASC_NODE":287.4579,"ARG_OF_PERICENTER":161.0395,"MEAN_ANOMALY":199.1059,"EPHEMERIS_TYPE":0,"NORAD_CAT_ID":60519,"ELEMENT_SET_NO":999,"REV_AT_EPOCH":10753,"BSTAR":0.00055609647,"MEAN_MOTION_DOT":0.0002763,"MEAN_MOTION_DDOT":0},{"OBJECT_NAME":"FLOCK 4BE-5","OBJECT_ID":"2024-149CV","EPOCH":"2026-07-20T05:09:13.910976","CLASSIFICATION_TYPE":"U","MEAN_MOTION":15.41139831,"ECCENTRICITY":0.00044373,"INCLINATION":97.3832,"RA_OF_ASC_NODE":285.5522,"ARG_OF_PERICENTER":157.4562,"MEAN_ANOMALY":202.688,"EPHEMERIS_TYPE":0,"NORAD_CAT_ID":60559,"ELEMENT_SET_NO":999,"REV_AT_EPOCH":10736,"BSTAR":0.000241975,"MEAN_MOTION_DOT":0.00009942,"MEAN_MOTION_DDOT":0}]}
